42809,IRIDIUM 126,2017,100.4,860.0,+,86.39,Active,1,LEO,USA,USA,Commercial/Government,Communications,Falcon,1 42809U 17039G   23245.52827732  .00000098  00000+0  28046-4 0  9995,2 42809  86.3932  59.3454 0002300  95.1048 265.0410 14.34217305323958,14.34217305,0.00023,LEO
42810,IRIDIUM 124,2017,99.77,860.0,+,86.45,Active,1,LEO,USA,USA,Commercial/Government,Communications,Falcon,1 42810U 17039H   23244.75036429  .00000539  00000+0  15424-3 0  9991,2 42810  86.4552 356.4334 0002165  89.7701 270.3748 14.43271361328074,14.43271361,0.0002165,LEO
42811,IRIDIUM 128,2017,100.4,860.0,+,86.39,Active,1,LEO,USA,USA,Commercial/Government,Communications,Falcon,1 42811U 17039J   23245.30969920  .00000340  00000+0  11441-3 0  9990,2 42811  86.3914  90.9910 0002308  88.8182 271.3278 14.34212897323947,14.34212897,0.0002308,LEO
42812,IRIDIUM 121,2017,100.4,860.0,+,86.39,Active,1,LEO,USA,USA,Commercial/Government,Communications,Falcon,1 42812U 17039K   23245.54730026  .00000105  00000+0  30539-4 0  9999,2 42812  86.3931  59.3587 0002171  91.8790 268.2655 14.34216102323940,14.34216102,0.0002171,LEO
42955,IRIDIUM 133,2017,100.4,860.0,+,86.39,Active,1,LEO,USA,USA,Commercial/Government,Communications,Falcon,1 42955U 17061A   23245.55073537  .00000260  00000+0  85878-4 0  9998,2 42955  86.3918  90.9831 0002277  92.7016 267.4441 14.34218491308775,14.34218491,0.0002277,LEO
42956,IRIDIUM 100,2017,100.4,860.0,+,86.39,Active,1,LEO,USA,USA,Commercial/Government,Communications,Falcon,1 42956U 17061B   23245.33507851  .00000274  00000+0  90794-4 0  9994,2 42956  86.3916  91.0160 0002239  89.8584 270.2868 14.34219433308767,14.34219433,0.0002239,LEO
42957,IRIDIUM 122,2017,100.4,860.0,+,86.39,Active,1,LEO,USA,USA,Commercial/Government,Communications,Falcon,1 42957U 17061C   23244.67544819  .00000280  00000+0  92765-4 0  9993,2 42957  86.3918  91.2898 0002370  88.9017 271.2451 14.34222636308653,14.34222636,0.000237,LEO
42958,IRIDIUM 129,2017,100.4,860.0,+,86.39,Active,1,LEO,USA,USA,Commercial/Government,Communications,Falcon,1 42958U 17061D   23245.32873622  .00000300  00000+0  10019-3 0  9998,2 42958  86.3915  91.0728 0002281  89.5172 270.6285 14.34216287308766,14.34216287,0.0002281,LEO
